CORAL                   
1 67685U 98067YB  26062.54120903  .00050636  00000+0  83964-3 0  9994
2 67685  51.6310 102.3518 0011409 161.3532 198.7877 15.51560114  3836
ISS OBJECT YC           
1 67686U 98067YC  26062.40877040  .00051568  00000+0  84429-3 0  9993
2 67686  51.6308 102.9692 0007752 129.1230 231.0450 15.51946136  3814
LEOPARD                 
1 67687U 98067YD  26062.41381876  .00042870  00000+0  71815-3 0  9993
2 67687  51.6311 103.0024 0007735 132.4796 227.6848 15.51386771  3731
ISS OBJECT YE           
1 67688U 98067YE  26062.41037585  .00049325  00000+0  81368-3 0  9995
2 67688  51.6313 102.9800 0007700 129.5648 230.6023 15.51755615  3735
PRC TEST SPACECRAFT 4   
1 67689U 26024A   26062.79917279  .00000204  00000+0  44045-4 0  9993
2 67689  49.9859  50.4229 0006117 337.4366  22.6305 14.91682747  3708
CZ-2F R/B               
1 67690U 26024B   26062.77599284  .00022900  00000+0  41961-3 0  9995
2 67690  49.9873  44.2524 0175067 250.3606 107.8386 15.34058057  3788
CZ-2F DEB               
1 67691U 26024C   26062.41541211  .01128149  10880-4  76859-3 0  9993
2 67691  49.9037  38.5059 0162599 262.7139  95.5337 15.93440052  3812
CZ-2F DEB               
1 67692U 26024D   26062.77532608  .00259258  00000+0  46624-2 0  9992
2 67692  50.3179  47.7128 0240387 256.7848 100.6195 15.22831471  3728
STARLINK-36748          
1 67693U 26025A   26062.76091475  .00266949  00000+0  17312-2 0  9992
2 67693  97.2842 174.0000 0000987  72.5790 287.5582 15.75244441  5000
STARLINK-36753          
1 67694U 26025B   26062.75315635  .00416685  00000+0  26395-2 0  9994
2 67694  97.2843 174.0098 0001124  28.3865 331.7461 15.75371965  5016
STARLINK-36750          
1 67695U 26025C   26062.28625096  .00236378  00000+0  11959-2 0  9997
2 67695  97.2842 173.5752 0001046  89.5564 270.5824 15.80921069  4930
STARLINK-36401          
1 67696U 26025D   26062.75002314  .00145305  00000+0  96163-3 0  9992
2 67696  97.2853 174.0408 0001079  87.3145 333.0930 15.75116395  4906
