CCSDS_OMM_VERS = 2.0
CREATION_DATE  = 
ORIGINATOR     = 

OBJECT_NAME    = CORAL
OBJECT_ID      = 1998-067YB
CENTER_NAME    = EARTH
REF_FRAME      = TEME
TIME_SYSTEM    = UTC
MEAN_ELEMENT_THEORY = SGP/SGP4

EPOCH          = 2026-03-03T12:59:20.460192
MEAN_MOTION    = 15.51560114
ECCENTRICITY   = .0011409
INCLINATION    = 51.6310
RA_OF_ASC_NODE = 102.3518
ARG_OF_PERICENTER = 161.3532
MEAN_ANOMALY   = 198.7877

EPHEMERIS_TYPE = 0
CLASSIFICATION_TYPE = U
NORAD_CAT_ID   = 67685
ELEMENT_SET_NO = 999
REV_AT_EPOCH   = 383
BSTAR          = .83964E-3
MEAN_MOTION_DOT = .50636E-3
MEAN_MOTION_DDOT = 0

CCSDS_OMM_VERS = 2.0
CREATION_DATE  = 
ORIGINATOR     = 

OBJECT_NAME    = ISS OBJECT YC
OBJECT_ID      = 1998-067YC
CENTER_NAME    = EARTH
REF_FRAME      = TEME
TIME_SYSTEM    = UTC
MEAN_ELEMENT_THEORY = SGP/SGP4

EPOCH          = 2026-03-03T09:48:37.762560
MEAN_MOTION    = 15.51946136
ECCENTRICITY   = .00077529
INCLINATION    = 51.6308
RA_OF_ASC_NODE = 102.9692
ARG_OF_PERICENTER = 129.1230
MEAN_ANOMALY   = 231.0450

EPHEMERIS_TYPE = 0
CLASSIFICATION_TYPE = U
NORAD_CAT_ID   = 67686
ELEMENT_SET_NO = 999
REV_AT_EPOCH   = 381
BSTAR          = .84429394E-3
MEAN_MOTION_DOT = .51568E-3
MEAN_MOTION_DDOT = 0

CCSDS_OMM_VERS = 2.0
CREATION_DATE  = 
ORIGINATOR     = 

OBJECT_NAME    = LEOPARD
OBJECT_ID      = 1998-067YD
CENTER_NAME    = EARTH
REF_FRAME      = TEME
TIME_SYSTEM    = UTC
MEAN_ELEMENT_THEORY = SGP/SGP4

EPOCH          = 2026-03-03T09:55:53.940864
MEAN_MOTION    = 15.51386771
ECCENTRICITY   = .00077356
INCLINATION    = 51.6311
RA_OF_ASC_NODE = 103.0024
ARG_OF_PERICENTER = 132.4796
MEAN_ANOMALY   = 227.6848

EPHEMERIS_TYPE = 0
CLASSIFICATION_TYPE = U
NORAD_CAT_ID   = 67687
ELEMENT_SET_NO = 999
REV_AT_EPOCH   = 373
BSTAR          = .71814867E-3
MEAN_MOTION_DOT = .4287E-3
MEAN_MOTION_DDOT = 0

CCSDS_OMM_VERS = 2.0
CREATION_DATE  = 
ORIGINATOR     = 

OBJECT_NAME    = ISS OBJECT YE
OBJECT_ID      = 1998-067YE
CENTER_NAME    = EARTH
REF_FRAME      = TEME
TIME_SYSTEM    = UTC
MEAN_ELEMENT_THEORY = SGP/SGP4

EPOCH          = 2026-03-03T09:50:56.473440
MEAN_MOTION    = 15.51755615
ECCENTRICITY   = .00077001
INCLINATION    = 51.6313
RA_OF_ASC_NODE = 102.9800
ARG_OF_PERICENTER = 129.5648
MEAN_ANOMALY   = 230.6023

EPHEMERIS_TYPE = 0
CLASSIFICATION_TYPE = U
NORAD_CAT_ID   = 67688
ELEMENT_SET_NO = 999
REV_AT_EPOCH   = 373
BSTAR          = .81367548E-3
MEAN_MOTION_DOT = .49325E-3
MEAN_MOTION_DDOT = 0

CCSDS_OMM_VERS = 2.0
CREATION_DATE  = 
ORIGINATOR     = 

OBJECT_NAME    = PRC TEST SPACECRAFT 4
OBJECT_ID      = 2026-024A
CENTER_NAME    = EARTH
REF_FRAME      = TEME
TIME_SYSTEM    = UTC
MEAN_ELEMENT_THEORY = SGP/SGP4

EPOCH          = 2026-03-03T19:10:48.529056
MEAN_MOTION    = 14.91682747
ECCENTRICITY   = .0006117
INCLINATION    = 49.9859
RA_OF_ASC_NODE = 50.4229
ARG_OF_PERICENTER = 337.4366
MEAN_ANOMALY   = 22.6305

EPHEMERIS_TYPE = 0
CLASSIFICATION_TYPE = U
NORAD_CAT_ID   = 67689
ELEMENT_SET_NO = 999
REV_AT_EPOCH   = 370
BSTAR          = .44045E-4
MEAN_MOTION_DOT = .204E-5
MEAN_MOTION_DDOT = 0

CCSDS_OMM_VERS = 2.0
CREATION_DATE  = 
ORIGINATOR     = 

OBJECT_NAME    = CZ-2F R/B
OBJECT_ID      = 2026-024B
CENTER_NAME    = EARTH
REF_FRAME      = TEME
TIME_SYSTEM    = UTC
MEAN_ELEMENT_THEORY = SGP/SGP4

EPOCH          = 2026-03-03T18:37:25.781376
MEAN_MOTION    = 15.34058057
ECCENTRICITY   = .0175067
INCLINATION    = 49.9873
RA_OF_ASC_NODE = 44.2524
ARG_OF_PERICENTER = 250.3606
MEAN_ANOMALY   = 107.8386

EPHEMERIS_TYPE = 0
CLASSIFICATION_TYPE = U
NORAD_CAT_ID   = 67690
ELEMENT_SET_NO = 999
REV_AT_EPOCH   = 378
BSTAR          = .41961E-3
MEAN_MOTION_DOT = .229E-3
MEAN_MOTION_DDOT = 0

CCSDS_OMM_VERS = 2.0
CREATION_DATE  = 
ORIGINATOR     = 

OBJECT_NAME    = CZ-2F DEB
OBJECT_ID      = 2026-024C
CENTER_NAME    = EARTH
REF_FRAME      = TEME
TIME_SYSTEM    = UTC
MEAN_ELEMENT_THEORY = SGP/SGP4

EPOCH          = 2026-03-03T09:58:11.606304
MEAN_MOTION    = 15.93440052
ECCENTRICITY   = .01625995
INCLINATION    = 49.9037
RA_OF_ASC_NODE = 38.5059
ARG_OF_PERICENTER = 262.7139
MEAN_ANOMALY   = 95.5337

EPHEMERIS_TYPE = 0
CLASSIFICATION_TYPE = U
NORAD_CAT_ID   = 67691
ELEMENT_SET_NO = 999
REV_AT_EPOCH   = 381
BSTAR          = .76858901E-3
MEAN_MOTION_DOT = .1128149E-1
MEAN_MOTION_DDOT = .10879993E-4

CCSDS_OMM_VERS = 2.0
CREATION_DATE  = 
ORIGINATOR     = 

OBJECT_NAME    = CZ-2F DEB
OBJECT_ID      = 2026-024D
CENTER_NAME    = EARTH
REF_FRAME      = TEME
TIME_SYSTEM    = UTC
MEAN_ELEMENT_THEORY = SGP/SGP4

EPOCH          = 2026-03-03T18:36:28.173312
MEAN_MOTION    = 15.22831471
ECCENTRICITY   = .0240387
INCLINATION    = 50.3179
RA_OF_ASC_NODE = 47.7128
ARG_OF_PERICENTER = 256.7848
MEAN_ANOMALY   = 100.6195

EPHEMERIS_TYPE = 0
CLASSIFICATION_TYPE = U
NORAD_CAT_ID   = 67692
ELEMENT_SET_NO = 999
REV_AT_EPOCH   = 372
BSTAR          = .46624E-2
MEAN_MOTION_DOT = .259258E-2
MEAN_MOTION_DDOT = 0

CCSDS_OMM_VERS = 2.0
CREATION_DATE  = 
ORIGINATOR     = 

OBJECT_NAME    = STARLINK-36748
OBJECT_ID      = 2026-025A
CENTER_NAME    = EARTH
REF_FRAME      = TEME
TIME_SYSTEM    = UTC
MEAN_ELEMENT_THEORY = SGP/SGP4

EPOCH          = 2026-03-03T18:15:43.034400
MEAN_MOTION    = 15.75244441
ECCENTRICITY   = .0000987
INCLINATION    = 97.2842
RA_OF_ASC_NODE = 174.0000
ARG_OF_PERICENTER = 72.5790
MEAN_ANOMALY   = 287.5582

EPHEMERIS_TYPE = 0
CLASSIFICATION_TYPE = U
NORAD_CAT_ID   = 67693
ELEMENT_SET_NO = 999
REV_AT_EPOCH   = 500
BSTAR          = .17312E-2
MEAN_MOTION_DOT = .266949E-2
MEAN_MOTION_DDOT = 0

CCSDS_OMM_VERS = 2.0
CREATION_DATE  = 
ORIGINATOR     = 

OBJECT_NAME    = STARLINK-36753
OBJECT_ID      = 2026-025B
CENTER_NAME    = EARTH
REF_FRAME      = TEME
TIME_SYSTEM    = UTC
MEAN_ELEMENT_THEORY = SGP/SGP4

EPOCH          = 2026-03-03T18:04:32.708640
MEAN_MOTION    = 15.75371965
ECCENTRICITY   = .0001124
INCLINATION    = 97.2843
RA_OF_ASC_NODE = 174.0098
ARG_OF_PERICENTER = 28.3865
MEAN_ANOMALY   = 331.7461

EPHEMERIS_TYPE = 0
CLASSIFICATION_TYPE = U
NORAD_CAT_ID   = 67694
ELEMENT_SET_NO = 999
REV_AT_EPOCH   = 501
BSTAR          = .26395E-2
MEAN_MOTION_DOT = .416685E-2
MEAN_MOTION_DDOT = 0

CCSDS_OMM_VERS = 2.0
CREATION_DATE  = 
ORIGINATOR     = 

OBJECT_NAME    = STARLINK-36750
OBJECT_ID      = 2026-025C
CENTER_NAME    = EARTH
REF_FRAME      = TEME
TIME_SYSTEM    = UTC
MEAN_ELEMENT_THEORY = SGP/SGP4

EPOCH          = 2026-03-03T06:52:12.082944
MEAN_MOTION    = 15.80921069
ECCENTRICITY   = .00010465
INCLINATION    = 97.2842
RA_OF_ASC_NODE = 173.5752
ARG_OF_PERICENTER = 89.5564
MEAN_ANOMALY   = 270.5824

EPHEMERIS_TYPE = 0
CLASSIFICATION_TYPE = U
NORAD_CAT_ID   = 67695
ELEMENT_SET_NO = 999
REV_AT_EPOCH   = 493
BSTAR          = .11959117E-2
MEAN_MOTION_DOT = .236378E-2
MEAN_MOTION_DDOT = 0

CCSDS_OMM_VERS = 2.0
CREATION_DATE  = 
ORIGINATOR     = 

OBJECT_NAME    = STARLINK-36401
OBJECT_ID      = 2026-025D
CENTER_NAME    = EARTH
REF_FRAME      = TEME
TIME_SYSTEM    = UTC
MEAN_ELEMENT_THEORY = SGP/SGP4

EPOCH          = 2026-03-03T18:00:01.999296
MEAN_MOTION    = 15.75116395
ECCENTRICITY   = .0001079
INCLINATION    = 97.2853
RA_OF_ASC_NODE = 174.0408
ARG_OF_PERICENTER = 87.3145
MEAN_ANOMALY   = 333.0930

EPHEMERIS_TYPE = 0
CLASSIFICATION_TYPE = U
NORAD_CAT_ID   = 67696
ELEMENT_SET_NO = 999
REV_AT_EPOCH   = 490
BSTAR          = .96163E-3
MEAN_MOTION_DOT = .145305E-2
MEAN_MOTION_DDOT = 0

